GPS BIIR-2  (PRN 13)    
1 24876U 97035A   25067.52663765 -.00000009  00000+0  00000+0 0  9999
2 24876  55.7641 116.7908 0087302  53.9556 306.9171  2.00562536202619
GPS BIIR-4  (PRN 20)    
1 26360U 00025A   25068.38794709 -.00000065  00000+0  00000+0 0  9992
2 26360  54.8699  38.0987 0038303 231.1729 121.1992  2.00558218181946
GPS BIIR-5  (PRN 22)    
1 26407U 00040A   25068.11935185  .00000028  00000+0  00000+0 0  9995
2 26407  54.9721 233.6413 0134515 298.5118  57.6915  2.00564183180612
GPS BIIR-8  (PRN 16)    
1 27663U 03005A   25067.92614139  .00000031  00000+0  00000+0 0  9999
2 27663  55.0075 233.4592 0143526  49.7981 307.5978  2.00559748161978
GPS BIIR-11 (PRN 19)    
1 28190U 04009A   25068.47266824 -.00000012  00000+0  00000+0 0  9995
2 28190  55.2233 294.4143 0101446 157.1651  29.7524  2.00570275153625
GPS BIIR-13 (PRN 02)    
1 28474U 04045A   25064.64755485 -.00000098  00000+0  00000+0 0  9995
2 28474  55.3593 343.7348 0164237 300.8074  57.1622  2.00657176149027
GPS BIIRM-1 (PRN 17)    
1 28874U 05038A   25068.43047027 -.00000006  00000+0  00000+0 0  9998
2 28874  55.2680 291.8860 0133622 289.4805 253.3073  2.00567323142518
GPS BIIRM-2 (PRN 31)    
1 29486U 06042A   25069.32880078 -.00000046  00000+0  00000+0 0  9998
2 29486  54.6798 169.7411 0104515  45.3311 326.2833  2.00568150135241
GPS BIIRM-3 (PRN 12)    
1 29601U 06052A   25068.24320994  .00000025  00000+0  00000+0 0  9990
2 29601  55.0463 232.4444 0087740  85.0346 275.9389  2.00556903134087
GPS BIIRM-4 (PRN 15)    
1 32260U 07047A   25069.05096315  .00000011  00000+0  00000+0 0  9992
2 32260  53.7629  99.2359 0158997  79.9356 281.9229  2.00551751127528
GPS BIIRM-5 (PRN 29)    
1 32384U 07062A   25069.11213899 -.00000009  00000+0  00000+0 0  9999
2 32384  55.4125 292.7620 0029441 153.4276  20.0681  2.00561951126263
GPS BIIRM-6 (PRN 07)    
1 32711U 08012A   25069.46017338 -.00000045  00000+0  00000+0 0  9997
2 32711  54.4569 168.4351 0195051 241.8018 116.2189  2.00555481124456
GPS BIIRM-8 (PRN 05)    
1 35752U 09043A   25069.19767007 -.00000050  00000+0  00000+0 0  9991
2 35752  55.8914  45.7326 0053863  74.8519 106.7895  2.00553477114030
GPS BIIF-1  (PRN 25)    
1 36585U 10022A   25068.27128206  .00000017  00000+0  00000+0 0  9997
2 36585  54.3667 227.2985 0121689  63.6978 288.9241  2.00564797108262
GPS BIIF-3  (PRN 24)    
1 38833U 12053A   25069.14416613 -.00000044  00000+0  00000+0 0  9991
2 38833  53.5283 162.5979 0163265  59.8957 301.7231  2.00561724 91024
GPS BIIF-4  (PRN 27)    
1 39166U 13023A   25068.00953691  .00000002  00000+0  00000+0 0  9998
2 39166  54.8832 287.8787 0132750  46.7720 314.3758  2.00561781 86553
GPS BIIF-5  (PRN 30)    
1 39533U 14008A   25067.01161266 -.00000038  00000+0  00000+0 0  9999
2 39533  53.6077 168.3239 0076378 222.8137 136.5920  2.00557296 80337
GPS BIIF-6  (PRN 06)    
1 39741U 14026A   25067.29701583 -.00000110  00000+0  00000+0 0  9993
2 39741  56.6718 349.6294 0036092 319.4987  40.2468  2.00549637 79193
GPS BIIF-7  (PRN 09)    
1 40105U 14045A   25067.87582884  .00000001  00000+0  00000+0 0  9993
2 40105  55.0608 107.0291 0028233 118.3551 241.9963  2.00554300 76745
GPS BIIF-8  (PRN 03)    
1 40294U 14068A   25067.24990998 -.00000037  00000+0  00000+0 0  9997
2 40294  56.6447  48.9625 0056204  63.5989 296.9797  2.00576559 75868
GPS BIIF-9  (PRN 26)    
1 40534U 15013A   25067.88968160  .00000015  00000+0  00000+0 0  9996
2 40534  53.2642 223.4295 0097639  34.5352 326.0578  2.00549265 72499
GPS BIIF-10 (PRN 08)    
1 40730U 15033A   25069.54589473 -.00000002  00000+0  00000+0 0  9994
2 40730  54.3625 286.1582 0104414  23.7890 336.7364  2.00553273 70710
GPS BIIF-11 (PRN 10)    
1 41019U 15062A   25067.60780204 -.00000037  00000+0  00000+0 0  9995
2 41019  56.6227  48.8045 0103019 228.5277 130.5868  2.00566633 68490
GPS BIIF-12 (PRN 32)    
1 41328U 16007A   25068.69115220  .00000009  00000+0  00000+0 0  9996
2 41328  55.2476 107.8978 0086872 241.4168 117.7745  2.00574410 66520
GPS BIII-1  (PRN 04)    
1 43873U 18109A   25068.34141764  .00000004  00000+0  00000+0 0  9997
2 43873  55.4135 110.5443 0033060 197.0748 164.8855  2.00565857 45752
GPS BIII-2  (PRN 18)    
1 44506U 19056A   25065.22116498 -.00000102  00000+0  00000+0 0  9993
2 44506  55.8075 349.7134 0049010 194.2197 337.1341  2.00560350 40680
GPS BIII-3  (PRN 23)    
1 45854U 20041A   25068.81031124 -.00000045  00000+0  00000+0 0  9992
2 45854  56.3433  47.0173 0051140 199.8124 345.0900  2.00568219 34729
GPS BIII-4  (PRN 14)    
1 46826U 20078A   25064.84060831  .00000058  00000+0  00000+0 0  9991
2 46826  54.0924 229.7779 0054920 198.7972 330.8735  2.00558631 32114
GPS BIII-5  (PRN 11)    
1 48859U 21054A   25062.86074877 -.00000090  00000+0  00000+0 0  9996
2 48859  55.3389 351.3378 0018851 231.0065 137.5242  2.00569823 27322
GPS BIII-6  (PRN 28)    
1 55268U 23009A   25055.80589204  .00000001  00000+0  00000+0 0  9992
2 55268  55.0899 167.2640 0000971  39.5557 308.9006  2.00545614 15662
GPS BIII-7  (PRN 01)    
1 62339U 24242A   25067.46405909 -.00000113  00000+0  00000+0 0  9998
2 62339  54.9905 353.0382 0004798 320.2659 251.8636  2.00556540  1915
